NORAD_CAT_ID,OBJECT_NAME,OBJECT_TYPE,EPOCH,MEAN_MOTION,ECCENTRICITY,INCLINATION,RA_OF_ASC_NODE,ARG_OF_PERICENTER,MEAN_ANOMALY,BSTAR,MEAN_MOTION_DOT,MEAN_MOTION_DDOT,TLE_LINE0,TLE_LINE1,TLE_LINE2,SEMIMAJOR_AXIS,PERIOD,APOGEE,PERIGEE,DECAYED
49771.0,STARLINK-3201,PAYLOAD,2023-10-12 23:51:33,15.08847071,0.0001283,53.2145,123.7385,87.2492,272.8647,0.00032107,4.827e-05,0.0,0 STARLINK-3201,1 49771U 21115AZ  23285.99413553  .00004827  00000-0  32107-3 0  9994,2 49771  53.2145 123.7385 0001283  87.2492 272.8647 15.08847071104131,6917.859,95.437,540.611,538.836,0.0
49771.0,STARLINK-3201,PAYLOAD,2023-10-13 06:13:06,15.08835926,0.00017,53.2139,122.5489,86.8163,273.3023,3.1838e-05,2.19e-06,0.0,0 STARLINK-3201,1 49771U 21115AZ  23286.25910078  .00000219  00000-0  31838-4 0  9990,2 49771  53.2139 122.5489 0001700  86.8163 273.3023 15.08835926104174,6917.893,95.438,540.934,538.582,0.0
49771.0,STARLINK-3201,PAYLOAD,2023-10-13 20:31:34,15.0884733,0.0001428,53.2154,119.8695,79.2616,280.8537,0.00023228,3.411e-05,0.0,0 STARLINK-3201,1 49771U 21115AZ  23286.85525632  .00003411  00000-0  23228-3 0  9994,2 49771  53.2154 119.8695 0001428  79.2616 280.8537 15.08847330104260,6917.858,95.437,540.711,538.735,0.0
49771.0,STARLINK-3201,PAYLOAD,2023-10-13 22:06:57,15.08851061,0.0001427,53.2152,119.5728,80.5892,279.5262,0.000307,4.603e-05,0.0,0 STARLINK-3201,1 49771U 21115AZ  23286.92149481  .00004603  00000-0  30700-3 0  9993,2 49771  53.2152 119.5728 0001427  80.5892 279.5262 15.08851061103166,6917.847,95.437,540.699,538.724,0.0
49771.0,STARLINK-3201,PAYLOAD,2023-10-14 12:25:25,15.08841828,0.0001533,53.2142,116.9003,83.0319,277.0848,0.0001367,1.888e-05,0.0,0 STARLINK-3201,1 49771U 21115AZ  23287.51765892  .00001888  00000-0  13670-3 0  9998,2 49771  53.2142 116.9003 0001533  83.0319 277.0848 15.08841828103255,6917.875,95.437,540.8,538.679,0.0
49771.0,STARLINK-3201,PAYLOAD,2023-10-14 20:22:21,15.08841405,0.0001398,53.2146,115.4124,81.5697,278.5453,6.8874e-05,8.08e-06,0.0,0 STARLINK-3201,1 49771U 21115AZ  23287.84885903  .00000808  00000-0  68874-4 0  9998,2 49771  53.2146 115.4124 0001398  81.5697 278.5453 15.08841405104416,6917.876,95.437,540.708,538.774,0.0
49771.0,STARLINK-3201,PAYLOAD,2023-10-14 21:57:44,15.08843608,0.0001418,53.2146,115.1148,81.4807,278.6345,9.8155e-05,1.275e-05,0.0,0 STARLINK-3201,1 49771U 21115AZ  23287.91509797  .00001275  00000-0  98155-4 0  9994,2 49771  53.2146 115.1148 0001418  81.4807 278.6345 15.08843608103310,6917.869,95.437,540.715,538.753,0.0
49771.0,STARLINK-3201,PAYLOAD,2023-10-15 12:16:12,15.08838317,0.0001378,53.2144,112.4383,89.3766,270.7384,0.00011169,1.49e-05,0.0,0 STARLINK-3201,1 49771U 21115AZ  23288.51126137  .00001490  00000-0  11169-3 0  9992,2 49771  53.2144 112.4383 0001378  89.3766 270.7384 15.08838317103402,6917.886,95.438,540.704,538.797,0.0
49771.0,STARLINK-3201,PAYLOAD,2023-10-15 18:37:45,15.08843007,0.0001406,53.2145,111.2486,86.5833,273.532,0.00013256,1.823e-05,0.0,0 STARLINK-3201,1 49771U 21115AZ  23288.77621934  .00001823  00000-0  13256-3 0  9994,2 49771  53.2145 111.2486 0001406  86.5833 273.5320 15.08843007103447,6917.871,95.437,540.709,538.764,0.0
49771.0,STARLINK-3201,PAYLOAD,2023-10-16 05:45:27,15.08845246,0.0001275,53.2148,109.1667,93.2074,266.9064,0.00010727,1.42e-05,0.0,0 STARLINK-3201,1 49771U 21115AZ  23289.23989754  .00001420  00000-0  10727-3 0  9996,2 49771  53.2148 109.1667 0001275  93.2074 266.9064 15.08845246104622,6917.864,95.437,540.611,538.847,0.0
49771.0,STARLINK-3201,PAYLOAD,2023-10-16 12:07:00,15.08840067,0.000139,53.2148,107.9778,87.5549,272.5603,0.00015672,2.207e-05,0.0,0 STARLINK-3201,1 49771U 21115AZ  23289.50486121  .00002207  00000-0  15672-3 0  9994,2 49771  53.2148 107.9778 0001390  87.5549 272.5603 15.08840067103551,6917.88,95.438,540.707,538.784,0.0
49771.0,STARLINK-3201,PAYLOAD,2023-10-16 16:53:09,15.08842674,0.0001408,53.2148,107.0856,87.9803,272.1351,0.00017893,2.561e-05,0.0,0 STARLINK-3201,1 49771U 21115AZ  23289.70358006  .00002561  00000-0  17893-3 0  9996,2 49771  53.2148 107.0856 0001408  87.9803 272.1351 15.08842674103581,6917.872,95.437,540.711,538.763,0.0
49771.0,STARLINK-3201,PAYLOAD,2023-10-17 11:57:46,15.08843425,0.0001412,53.2148,103.5173,88.7241,271.3912,0.00012932,1.771e-05,0.0,0 STARLINK-3201,1 49771U 21115AZ  23290.49845923  .00001771  00000-0  12932-3 0  9994,2 49771  53.2148 103.5173 0001412  88.7241 271.3912 15.08843425104810,6917.87,95.437,540.712,538.758,0.0
49771.0,STARLINK-3201,PAYLOAD,2023-10-17 18:19:19,15.08845148,0.0001403,53.2148,102.3285,85.1942,274.921,0.00014382,2.002e-05,0.0,0 STARLINK-3201,1 49771U 21115AZ  23290.76341804  .00002002  00000-0  14382-3 0  9992,2 49771  53.2148 102.3285 0001403  85.1942 274.9210 15.08845148103745,6917.865,95.437,540.7,538.759,0.0
49771.0,STARLINK-3201,PAYLOAD,2023-10-18 11:48:34,15.08839688,0.0001361,53.2161,99.0583,84.0645,276.0502,5.3472e-05,5.63e-06,0.0,0 STARLINK-3201,1 49771U 21115AZ  23291.49206028  .00000563  00000-0  53472-4 0  9995,2 49771  53.2161  99.0583 0001361  84.0645 276.0502 15.08839688104968,6917.881,95.438,540.688,538.805,0.0
49771.0,STARLINK-3201,PAYLOAD,2023-10-18 14:59:20,15.08840459,0.000141,53.2151,98.4627,86.2552,273.8601,7.7713e-05,9.49e-06,0.0,0 STARLINK-3201,1 49771U 21115AZ  23291.62454122  .00000949  00000-0  77713-4 0  9992,2 49771  53.2151  98.4627 0001410  86.2552 273.8601 15.08840459103877,6917.879,95.438,540.719,538.769,0.0
49771.0,STARLINK-3201,PAYLOAD,2023-10-19 11:39:20,15.08842008,0.0001247,53.2155,94.5965,83.7587,276.3547,7.941e-05,9.76e-06,0.0,0 STARLINK-3201,1 49771U 21115AZ  23292.48565890  .00000976  00000-0  79410-4 0  9998,2 49771  53.2155  94.5965 0001247  83.7587 276.3547 15.08842008104006,6917.874,95.437,540.602,538.877,0.0
49771.0,STARLINK-3201,PAYLOAD,2023-10-19 19:36:16,15.08842676,0.000241,53.2162,93.11,105.3043,254.8215,0.00023972,3.529e-05,0.0,0 STARLINK-3201,1 49771U 21115AZ  23292.81685492  .00003529  00000-0  23972-3 0  9994,2 49771  53.2162  93.1100 0002410 105.3043 254.8215 15.08842676105163,6917.872,95.437,541.404,538.07,0.0
49771.0,STARLINK-3201,PAYLOAD,2023-10-20 03:33:12,15.08842376,0.0001226,53.2166,91.6218,77.0916,283.0213,0.00011615,1.561e-05,0.0,0 STARLINK-3201,1 49771U 21115AZ  23293.14805638  .00001561  00000-0  11615-3 0  9992,2 49771  53.2166  91.6218 0001226  77.0916 283.0213 15.08842376105213,6917.873,95.437,540.586,538.89,0.0
49771.0,STARLINK-3201,PAYLOAD,2023-10-20 09:54:44,15.08841889,0.000199,53.2157,90.433,79.9622,280.1594,6.7112e-05,7.8e-06,0.0,0 STARLINK-3201,1 49771U 21115AZ  23293.41302061  .00000780  00000-0  67112-4 0  9990,2 49771  53.2157  90.4330 0001990  79.9622 280.1594 15.08841889104147,6917.875,95.437,541.116,538.363,0.0
49771.0,STARLINK-3201,PAYLOAD,2023-10-20 19:27:03,15.088536,8.66e-05,53.2197,88.6529,68.4851,291.6234,-0.00018322,-3.204e-05,0.0,0 STARLINK-3201,1 49771U 21115AZ  23293.81045647 -.00003204  00000-0 -18322-3 0  9992,2 49771  53.2197  88.6529 0000866  68.4851 291.6234 15.08853600104207,6917.839,95.437,540.303,539.105,0.0
49771.0,STARLINK-3201,PAYLOAD,2023-10-21 12:56:18,15.08841466,0.0002199,53.2153,85.3766,81.4774,278.6467,5.216e-05,5.42e-06,0.0,0 STARLINK-3201,1 49771U 21115AZ  23294.53910244  .00000542  00000-0  52160-4 0  9995,2 49771  53.2153  85.3766 0002199  81.4774 278.6467 15.08841466104318,6917.876,95.437,541.262,538.22,0.0
49771.0,STARLINK-3201,PAYLOAD,2023-10-22 03:14:47,15.08809775,0.0002342,53.2154,82.7013,78.6757,281.4498,0.00045787,7e-05,0.0,0 STARLINK-3201,1 49771U 21115AZ  23295.13527621  .00007000  00000-0  45787-3 0  9997,2 49771  53.2154  82.7013 0002342  78.6757 281.4498 15.08809775105510,6917.973,95.439,541.458,538.218,0.0
49771.0,STARLINK-3201,PAYLOAD,2023-10-22 14:22:29,15.08823757,0.0001705,53.216,80.6211,80.7174,279.4011,-1.3609e-05,-5.05e-06,0.0,0 STARLINK-3201,1 49771U 21115AZ  23295.59895650 -.00000505  00000-0 -13609-4 0  9991,2 49771  53.2160  80.6211 0001705  80.7174 279.4011 15.08823757104471,6917.93,95.439,540.975,538.616,0.0
49771.0,STARLINK-3201,PAYLOAD,2023-10-22 15:57:52,15.08828161,0.0001483,53.2165,80.3208,94.52,265.5962,-4.6036e-05,-1.02e-05,0.0,0 STARLINK-3201,1 49771U 21115AZ  23295.66519396 -.00001020  00000-0 -46036-4 0  9992,2 49771  53.2165  80.3208 0001483  94.5200 265.5962 15.08828161105594,6917.917,95.438,540.808,538.756,0.0
49771.0,STARLINK-3201,PAYLOAD,2023-10-23 15:48:38,15.08879943,0.0001419,53.2173,75.8603,79.9185,280.1967,-0.00041185,-6.844e-05,0.0,0 STARLINK-3201,1 49771U 21115AZ  23296.65877404 -.00006844  00000-0 -41185-3 0  9997,2 49771  53.2173  75.8603 0001419  79.9185 280.1967 15.08879943105748,6917.758,95.435,540.605,538.642,0.0
49771.0,STARLINK-3201,PAYLOAD,2023-10-24 02:56:20,15.08836348,0.0001499,53.2172,73.7797,80.972,279.1442,0.00023499,3.454e-05,0.0,0 STARLINK-3201,1 49771U 21115AZ  23297.12246517  .00003454  00000-0  23499-3 0  9995,2 49771  53.2172  73.7797 0001499  80.9720 279.1442 15.08836348105819,6917.892,95.438,540.794,538.72,0.0
49771.0,STARLINK-3201,PAYLOAD,2023-10-24 12:28:40,15.08833485,0.0001323,53.2201,71.997,84.2102,275.9041,0.0001891,2.722e-05,0.0,0 STARLINK-3201,1 49771U 21115AZ  23297.51990926  .00002722  00000-0  18910-3 0  9997,2 49771  53.2201  71.9970 0001323  84.2102 275.9041 15.08833485104763,6917.9,95.438,540.681,538.85,0.0
49771.0,STARLINK-3201,PAYLOAD,2023-10-25 13:54:50,15.08841299,0.0001744,53.2176,67.238,91.5899,268.5293,5.0301e-05,5.13e-06,0.0,0 STARLINK-3201,1 49771U 21115AZ  23298.57974906  .00000513  00000-0  50301-4 0  9991,2 49771  53.2176  67.2380 0001744  91.5899 268.5293 15.08841299106039,6917.876,95.437,540.948,538.535,0.0
49771.0,STARLINK-3201,PAYLOAD,2023-10-26 13:45:38,15.08814424,0.0001377,53.2188,62.7797,94.6276,265.4874,0.0004652,7.118e-05,0.0,0 STARLINK-3201,1 49771U 21115AZ  23299.57335813  .00007118  00000-0  46520-3 0  9995,2 49771  53.2188  62.7797 0001377  94.6276 265.4874 15.08814424105073,6917.959,95.439,540.776,538.871,0.0
